NORAD_CAT_ID,OBJECT_NAME,OBJECT_TYPE,EPOCH,MEAN_MOTION,ECCENTRICITY,INCLINATION,RA_OF_ASC_NODE,ARG_OF_PERICENTER,MEAN_ANOMALY,BSTAR,MEAN_MOTION_DOT,MEAN_MOTION_DDOT,TLE_LINE0,TLE_LINE1,TLE_LINE2,SEMIMAJOR_AXIS,PERIOD,APOGEE,PERIGEE,DECAYED
27216,PSLV DEB,DEBRIS,2022-01-22 15:54:19,15.06126148,0.0029606,98.2189,60.4441,318.822,167.1571,0.00030516,4.434e-05,0.0,0 PSLV DEB,1 27216U 01049FL  22022.66273123  .00004434  00000-0  30516-3 0  9993,2 27216  98.2189  60.4441 0029606 318.8220 167.1571 15.06126148 90004,6926.188,95.61,568.559,527.547,0.0
27216,PSLV DEB,DEBRIS,2022-01-22 20:54:26,15.06127947,0.0029565,98.219,60.666000000000004,318.1503,217.1277,0.00030060000000000004,4.367e-05,0.0,0 PSLV DEB,1 27216U 01049FL  22022.87113840  .00004367  00000-0  30060-3 0  9994,2 27216  98.2190  60.6660 0029565 318.1503 217.1277 15.06127947 90032,6926.182,95.609,568.525,527.57,0.0
27216,PSLV DEB,DEBRIS,2022-01-23 14:20:30,15.06134986,0.0029484999999999997,98.2192,61.4404,315.6719,195.9906,0.00030005,4.359e-05,0.0,0 PSLV DEB,1 27216U 01049FL  22023.59757941  .00004359  00000-0  30005-3 0  9990,2 27216  98.2192  61.4404 0029485 315.6719 195.9906 15.06134986 90146,6926.161,95.609,568.448,527.604,0.0
27216,PSLV DEB,DEBRIS,2022-01-23 22:10:47,15.06137348,0.0029439,98.2193,61.7886,314.5642,166.7387,0.00027848,4.041e-05,0.0,0 PSLV DEB,1 27216U 01049FL  22023.92415688  .00004041  00000-0  27848-3 0  9995,2 27216  98.2193  61.7886 0029439 314.5642 166.7387 15.06137348 90195,6926.154,95.609,568.409,527.629,0.0
27216,PSLV DEB,DEBRIS,2022-01-24 00:58:14,15.06138339,0.0029425999999999996,98.2193,61.9125,314.168,77.2524,0.00027457,3.983e-05,0.0,0 PSLV DEB,1 27216U 01049FL  22024.04044157  .00003983  00000-0  27457-3 0  9998,2 27216  98.2193  61.9125 0029426 314.1680  77.2524 15.06138339 90209,6926.151,95.609,568.3969999999998,527.635,0.0
27216,PSLV DEB,DEBRIS,2022-01-24 14:15:27,15.06143115,0.0029362,98.2194,62.5027,312.2881,199.083,0.00026283,3.81e-05,0.0,0 PSLV DEB,1 27216U 01049FL  22024.59406472  .00003810  00000-0  26283-3 0  9995,2 27216  98.2194  62.5027 0029362 312.2881 199.0830 15.06143115 90299,6926.1359999999995,95.60799999999999,568.3380000000002,527.664,0.0
27216,PSLV DEB,DEBRIS,2022-01-25 14:10:26,15.06153042,0.0029236,98.2195,63.5649,308.8809,202.4139,0.00029215,4.244e-05,0.0,0 PSLV DEB,1 27216U 01049FL  22025.59058403  .00004244  00000-0  29215-3 0  9993,2 27216  98.2195  63.5649 0029236 308.8809 202.4139 15.06153042 90440,6926.106,95.60799999999999,568.22,527.721,0.0
27216,PSLV DEB,DEBRIS,2022-01-25 15:40:06,15.06153443,0.0029249000000000002,98.2196,63.6313,308.6532,180.077,0.00029058,4.221e-05,0.0,0 PSLV DEB,1 27216U 01049FL  22025.65285535  .00004221  00000-0  29058-3 0  9998,2 27216  98.2196  63.6313 0029249 308.6532 180.0770 15.06153443 90453,6926.104,95.60799999999999,568.227,527.711,0.0
27216,PSLV DEB,DEBRIS,2022-01-26 14:05:25,15.061625400000002,0.0029158,98.2196,64.6272,305.4114,205.821,0.00030323,4.409e-05,0.0,0 PSLV DEB,1 27216U 01049FL  22026.58709973  .00004409  00000-0  30323-3 0  9993,2 27216  98.2196  64.6272 0029158 305.4114 205.8210 15.06162540 90596,6926.076,95.60700000000001,568.136,527.746,0.0
27216,PSLV DEB,DEBRIS,2022-01-27 02:27:35,15.06166377,0.0029111000000000002,98.2195,65.1767,303.6229,120.4371,0.00028094,4.079e-05,0.0,0 PSLV DEB,1 27216U 01049FL  22027.10249175  .00004079  00000-0  28094-3 0  9990,2 27216  98.2195  65.1767 0029111 303.6229 120.4371 15.06166377 90677,6926.065,95.60700000000001,568.092,527.7669999999998,0.0
27216,PSLV DEB,DEBRIS,2022-01-27 14:00:28,15.06170404,0.0029086,98.2194,65.6896,301.925,209.5171,0.00025975,3.766e-05,0.0,0 PSLV DEB,1 27216U 01049FL  22027.58365962  .00003766  00000-0  25975-3 0  9992,2 27216  98.2194  65.6896 0029086 301.9250 209.5171 15.06170404 90741,6926.052,95.60700000000001,568.062,527.7719999999998,0.0
27216,PSLV DEB,DEBRIS,2022-01-27 15:29:25,15.06170811,0.002908,98.2194,65.7554,301.7098,184.4959,0.00025623,3.714e-05,0.0,0 PSLV DEB,1 27216U 01049FL  22027.64543705  .00003714  00000-0  25623-3 0  9995,2 27216  98.2194  65.7554 0029080 301.7098 184.4959 15.06170811 90753,6926.0509999999995,95.60700000000001,568.057,527.775,0.0
27216,PSLV DEB,DEBRIS,2022-01-28 02:21:19,15.06175759,0.0029052,98.2192,66.2379,300.124,119.2413,0.00027639,4.013e-05,0.0,0 PSLV DEB,1 27216U 01049FL  22028.09814319  .00004013  00000-0  27639-3 0  9999,2 27216  98.2192  66.2379 0029052 300.1240 119.2413 15.06175759 90828,6926.036,95.60600000000001,568.0219999999998,527.779,0.0
27216,PSLV DEB,DEBRIS,2022-01-28 13:55:30,15.06179124,0.0029024000000000003,98.219,66.7518,298.4085,213.265,0.00024443,3.54e-05,0.0,0 PSLV DEB,1 27216U 01049FL  22028.58021741  .00003540  00000-0  24443-3 0  9996,2 27216  98.2190  66.7518 0029024 298.4085 213.2650 15.06179124 90896,6926.026,95.60600000000001,567.993,527.788,0.0
27216,PSLV DEB,DEBRIS,2022-01-29 13:52:12,15.06191941,0.0029000999999999996,98.2185,67.8151,294.8422,223.3166,0.00033381,4.864e-05,0.0,0 PSLV DEB,1 27216U 01049FL  22029.57792219  .00004864  00000-0  33381-3 0  9992,2 27216  98.2185  67.8151 0029001 294.8422 223.3166 15.06191941 91048,6925.986,95.605,567.937,527.765,0.0
27216,PSLV DEB,DEBRIS,2022-01-29 15:19:23,15.06192524,0.0028997,98.2184,67.8796,294.6236,191.6118,0.0003335,4.8599999999999995e-05,0.0,0 PSLV DEB,1 27216U 01049FL  22029.63846473  .00004860  00000-0  33350-3 0  9993,2 27216  98.2184  67.8796 0028997 294.6236 191.6118 15.06192524 91059,6925.985,95.605,567.933,527.766,0.0
27216,PSLV DEB,DEBRIS,2022-01-30 13:47:43,15.06201992,0.0029004,98.2179,68.8775,291.255,228.9711,0.0003451,5.033e-05,0.0,0 PSLV DEB,1 27216U 01049FL  22030.57480559  .00005033  00000-0  34510-3 0  9999,2 27216  98.2179  68.8775 0029004 291.2550 228.9711 15.06201992 91191,6925.955,95.605,567.909,527.732,0.0
27216,PSLV DEB,DEBRIS,2022-01-30 15:14:23,15.06202643,0.0028995,98.21799999999999,68.9417,291.0317,195.3479,0.00034481,5.029e-05,0.0,0 PSLV DEB,1 27216U 01049FL  22030.63499286  .00005029  00000-0  34481-3 0  9995,2 27216  98.2180  68.9417 0028995 291.0317 195.3479 15.06202643 91208,6925.953,95.605,567.9,527.737,0.0
27216,PSLV DEB,DEBRIS,2022-01-31 02:04:36,15.0620671,0.0029007,98.2177,69.4229,289.4137,123.8648,0.00033315,4.857e-05,0.0,0 PSLV DEB,1 27216U 01049FL  22031.08653505  .00004857  00000-0  33315-3 0  9994,2 27216  98.2177  69.4229 0029007 289.4137 123.8648 15.06206710 91277,6925.941,95.604,567.896,527.716,0.0
27216,PSLV DEB,DEBRIS,2022-01-31 08:30:14,15.06214403,0.0029018,98.2174,69.7082,288.4755,135.9875,0.00050984,7.476e-05,0.0,0 PSLV DEB,1 27216U 01049FL  22031.35433051  .00007476  00000-0  50984-3 0  9997,2 27216  98.2174  69.7082 0029018 288.4755 135.9875 15.06214403 91310,6925.9169999999995,95.604,567.88,527.685,0.0
27216,PSLV DEB,DEBRIS,2022-01-31 21:31:46,15.06222654,0.0029056,98.21700000000001,70.2864,286.5346,199.0074,0.00057342,8.420000000000001e-05,0.0,0 PSLV DEB,1 27216U 01049FL  22031.89706282  .00008420  00000-0  57342-3 0  9990,2 27216  98.2170  70.2864 0029056 286.5346 199.0074 15.06222654 91395,6925.892,95.603,567.881,527.633,0.0
27216,PSLV DEB,DEBRIS,2022-02-01 08:25:03,15.06225408,0.0029081999999999997,98.2166,70.7698,284.9176,139.0673,0.00050809,7.452e-05,0.0,0 PSLV DEB,1 27216U 01049FL  22032.35073097  .00007452  00000-0  50809-3 0  9998,2 27216  98.2166  70.7698 0029082 284.9176 139.0673 15.06225408 91469,6925.884,95.603,567.891,527.607,0.0
27216,PSLV DEB,DEBRIS,2022-02-01 13:35:55,15.06226208,0.0029101999999999995,98.2165,70.9998,284.1499,229.7225,0.00046142,6.761e-05,0.0,0 PSLV DEB,1 27216U 01049FL  22032.56661563  .00006761  00000-0  46142-3 0  9999,2 27216  98.2165  70.9998 0029102 284.1499 229.7225 15.06226208 91498,6925.8809999999985,95.603,567.9019999999998,527.591,0.0
27216,PSLV DEB,DEBRIS,2022-02-01 21:27:04,15.06225829,0.0029118000000000004,98.2164,71.3484,282.9698,203.9218,0.00033413,4.874e-05,0.0,0 PSLV DEB,1 27216U 01049FL  22032.89379806  .00004874  00000-0  33413-3 0  9991,2 27216  98.2164  71.3484 0029118 282.9698 203.9218 15.06225829 91546,6925.882,95.603,567.914,527.581,0.0
27216,PSLV DEB,DEBRIS,2022-02-02 08:19:51,15.0623345,0.0029140999999999998,98.2162,71.8314,281.4167,142.0707,0.00043781,6.412e-05,0.0,0 PSLV DEB,1 27216U 01049FL  22033.34712216  .00006412  00000-0  43781-3 0  9997,2 27216  98.2162  71.8314 0029141 281.4167 142.0707 15.06233450 91615,6925.859,95.603,567.9069999999998,527.5409999999998,0.0
27216,PSLV DEB,DEBRIS,2022-02-02 14:59:13,15.06234325,0.0029167,98.2162,72.1269,280.4388,205.9768,0.0003768,5.508e-05,0.0,0 PSLV DEB,1 27216U 01049FL  22033.62446248  .00005508  00000-0  37680-3 0  9993,2 27216  98.2162  72.1269 0029167 280.4388 205.9768 15.06234325 91652,6925.856,95.603,567.922,527.521,0.0
27216,PSLV DEB,DEBRIS,2022-02-02 21:21:58,15.062378099999998,0.0029178,98.2161,72.4101,279.4867,207.3041,0.00039642,5.799e-05,0.0,0 PSLV DEB,1 27216U 01049FL  22033.89025841  .00005799  00000-0  39642-3 0  9996,2 27216  98.2161  72.4101 0029178 279.4867 207.3041 15.06237810 91697,6925.846,95.602,567.919,527.502,0.0
27216,PSLV DEB,DEBRIS,2022-02-03 08:14:33,15.06240993,0.0029205,98.21600000000001,72.8931,277.9184,144.7098,0.00034883,5.094e-05,0.0,0 PSLV DEB,1 27216U 01049FL  22034.34343958  .00005094  00000-0  34883-3 0  9999,2 27216  98.2160  72.8931 0029205 277.9184 144.7098 15.06240993 91767,6925.8359999999975,95.602,567.928,527.474,0.0
27216,PSLV DEB,DEBRIS,2022-02-04 01:44:07,15.06256861,0.0029218000000000004,98.2161,73.6696,275.3957,137.0799,0.00056411,8.291e-05,0.0,0 PSLV DEB,1 27216U 01049FL  22035.07230834  .00008291  00000-0  56411-3 0  9991,2 27216  98.2161  73.6696 0029218 275.3957 137.0799 15.06256861 91875,6925.7869999999975,95.601,567.888,527.4169999999998,0.0
